HULIANWANG DIGUI-33     
1 64286U 25121D   26065.55083312  .00000022  00000+0  17225-4 0  9997
2 64286  86.4970  48.2192 0002070  76.9719 283.1646 13.24425491 36572
HULIANWANG DIGUI-34     
1 64287U 25121E   26065.61887809  .00000013  00000+0 -37267-5 0  9998
2 64287  86.4948  48.1279 0002202  72.9816 287.1559 13.24424341 36585
HULIANWANG DIGUI-35     
1 64956U 25159A   26065.66089625  .00000072  00000+0  13384-3 0  9993
2 64956  86.4982 317.0881 0001265  73.5584 286.5689 13.24417359 29557
HULIANWANG DIGUI-36     
1 64957U 25159B   26065.65314636  .00000084  00000+0  16150-3 0  9993
2 64957  86.5002 317.1287 0001344  72.1532 287.9749 13.24419956 29556
HULIANWANG DIGUI-37     
1 64958U 25159C   26065.64560479  .00000080  00000+0  15340-3 0  9997
2 64958  86.4943 316.9925 0001431  69.2961 290.8327 13.24419501 29557
HULIANWANG DIGUI-38     
1 64959U 25159D   26065.63806955  .00000079  00000+0  15046-3 0  9990
2 64959  86.5002 317.1216 0001414  71.8678 288.2610 13.24419655 29552
HULIANWANG DIGUI-39     
1 64960U 25159E   26065.63050193  .00000080  00000+0  15116-3 0  9997
2 64960  86.4977 317.0636 0001419  73.1903 286.9386 13.24419837 29557
HULIANWANG DIGUI-40     
1 65043U 25162A   26065.62160518 -.00000080  00000+0  94760-4 0  9990
2 65043  49.9987 273.8332 0001030  78.2318 281.8670 13.29332367 29706
HULIANWANG DIGUI-41     
1 65044U 25162B   26065.61325252 -.00000083  00000+0  88097-4 0  9997
2 65044  49.9997 273.8072 0001069  78.3026 281.7966 13.29332767 29710
HULIANWANG DIGUI-42     
1 65045U 25162C   26065.60487152 -.00000083  00000+0  87744-4 0  9993
2 65045  49.9962 273.7015 0001012  79.9722 280.1264 13.29332161 29719
HULIANWANG DIGUI-43     
1 65046U 25162D   26065.59649624 -.00000083  00000+0  87897-4 0  9995
2 65046  49.9979 273.6900 0001005  78.7601 281.3384 13.29333200 29716
HULIANWANG DIGUI-44     
1 65047U 25162E   26065.58784400 -.00000087  00000+0  80551-4 0  9991
2 65047  50.0006 273.6932 0000766 358.0352   2.0517 13.29340739 29728
HULIANWANG DIGUI-45     
1 65048U 25162F   26065.57982433 -.00000080  00000+0  94218-4 0  9995
2 65048  50.0036 273.7053 0001053  79.2620 280.8371 13.29333041 29718
HULIANWANG DIGUI-46     
1 65049U 25162G   26065.57146906 -.00000078  00000+0  99911-4 0  9995
2 65049  50.0054 273.6948 0001055  81.0843 279.0148 13.29332954 29715
HULIANWANG DIGUI-47     
1 65050U 25162H   26065.63829166 -.00000081  00000+0  92544-4 0  9999
2 65050  50.0018 273.3192 0001045  81.8270 278.2721 13.29332796 29729
HULIANWANG DIGUI-48     
1 65051U 25162J   26065.62996069 -.00000074  00000+0  10685-3 0  9993
2 65051  50.0028 273.2931 0001032  79.5408 280.5581 13.29332326 29723
