[{"OBJECT_NAME":"HULIANWANG DIGUI-33","OBJECT_ID":"2025-121D","EPOCH":"2026-03-06T13:13:11.981568","MEAN_MOTION":13.24425491,"ECCENTRICITY":0.00020709,"INCLINATION":86.497,"RA_OF_ASC_NODE":48.2192,"ARG_OF_PERICENTER":76.9719,"MEAN_ANOMALY":283.1646,"EPHEMERIS_TYPE":0,"CLASSIFICATION_TYPE":"U","NORAD_CAT_ID":64286,"ELEMENT_SET_NO":999,"REV_AT_EPOCH":3657,"BSTAR":1.722468e-5,"MEAN_MOTION_DOT":2.2e-7,"MEAN_MOTION_DDOT":0},{"OBJECT_NAME":"HULIANWANG DIGUI-34","OBJECT_ID":"2025-121E","EPOCH":"2026-03-06T14:51:11.066976","MEAN_MOTION":13.24424341,"ECCENTRICITY":0.00022027,"INCLINATION":86.4948,"RA_OF_ASC_NODE":48.1279,"ARG_OF_PERICENTER":72.9816,"MEAN_ANOMALY":287.1559,"EPHEMERIS_TYPE":0,"CLASSIFICATION_TYPE":"U","NORAD_CAT_ID":64287,"ELEMENT_SET_NO":999,"REV_AT_EPOCH":3658,"BSTAR":-3.726734e-6,"MEAN_MOTION_DOT":1.3e-7,"MEAN_MOTION_DDOT":0},{"OBJECT_NAME":"HULIANWANG DIGUI-35","OBJECT_ID":"2025-159A","EPOCH":"2026-03-06T15:51:41.436000","MEAN_MOTION":13.24417359,"ECCENTRICITY":0.0001265,"INCLINATION":86.4982,"RA_OF_ASC_NODE":317.0881,"ARG_OF_PERICENTER":73.5584,"MEAN_ANOMALY":286.5689,"EPHEMERIS_TYPE":0,"CLASSIFICATION_TYPE":"U","NORAD_CAT_ID":64956,"ELEMENT_SET_NO":999,"REV_AT_EPOCH":2955,"BSTAR":0.00013384116,"MEAN_MOTION_DOT":7.2e-7,"MEAN_MOTION_DDOT":0},{"OBJECT_NAME":"HULIANWANG DIGUI-36","OBJECT_ID":"2025-159B","EPOCH":"2026-03-06T15:40:31.845504","MEAN_MOTION":13.24419956,"ECCENTRICITY":0.00013447,"INCLINATION":86.5002,"RA_OF_ASC_NODE":317.1287,"ARG_OF_PERICENTER":72.1532,"MEAN_ANOMALY":287.9749,"EPHEMERIS_TYPE":0,"CLASSIFICATION_TYPE":"U","NORAD_CAT_ID":64957,"ELEMENT_SET_NO":999,"REV_AT_EPOCH":2955,"BSTAR":0.00016149752,"MEAN_MOTION_DOT":8.4e-7,"MEAN_MOTION_DDOT":0},{"OBJECT_NAME":"HULIANWANG DIGUI-37","OBJECT_ID":"2025-159C","EPOCH":"2026-03-06T15:29:40.253856","MEAN_MOTION":13.24419501,"ECCENTRICITY":0.00014313,"INCLINATION":86.4943,"RA_OF_ASC_NODE":316.9925,"ARG_OF_PERICENTER":69.2961,"MEAN_ANOMALY":290.8327,"EPHEMERIS_TYPE":0,"CLASSIFICATION_TYPE":"U","NORAD_CAT_ID":64958,"ELEMENT_SET_NO":999,"REV_AT_EPOCH":2955,"BSTAR":0.00015339745,"MEAN_MOTION_DOT":8.0e-7,"MEAN_MOTION_DDOT":0},{"OBJECT_NAME":"HULIANWANG DIGUI-38","OBJECT_ID":"2025-159D","EPOCH":"2026-03-06T15:18:49.209120","MEAN_MOTION":13.24419655,"ECCENTRICITY":0.00014143,"INCLINATION":86.5002,"RA_OF_ASC_NODE":317.1216,"ARG_OF_PERICENTER":71.8678,"MEAN_ANOMALY":288.261,"EPHEMERIS_TYPE":0,"CLASSIFICATION_TYPE":"U","NORAD_CAT_ID":64959,"ELEMENT_SET_NO":999,"REV_AT_EPOCH":2955,"BSTAR":0.00015045526,"MEAN_MOTION_DOT":7.9e-7,"MEAN_MOTION_DDOT":0},{"OBJECT_NAME":"HULIANWANG DIGUI-39","OBJECT_ID":"2025-159E","EPOCH":"2026-03-06T15:07:55.366752","MEAN_MOTION":13.24419837,"ECCENTRICITY":0.00014192,"INCLINATION":86.4977,"RA_OF_ASC_NODE":317.0636,"ARG_OF_PERICENTER":73.1903,"MEAN_ANOMALY":286.9386,"EPHEMERIS_TYPE":0,"CLASSIFICATION_TYPE":"U","NORAD_CAT_ID":64960,"ELEMENT_SET_NO":999,"REV_AT_EPOCH":2955,"BSTAR":0.00015116476,"MEAN_MOTION_DOT":8.0e-7,"MEAN_MOTION_DDOT":0},{"OBJECT_NAME":"HULIANWANG DIGUI-40","OBJECT_ID":"2025-162A","EPOCH":"2026-03-06T14:55:06.687552","MEAN_MOTION":13.29332367,"ECCENTRICITY":0.00010303,"INCLINATION":49.9987,"RA_OF_ASC_NODE":273.8332,"ARG_OF_PERICENTER":78.2318,"MEAN_ANOMALY":281.867,"EPHEMERIS_TYPE":0,"CLASSIFICATION_TYPE":"U","NORAD_CAT_ID":65043,"ELEMENT_SET_NO":999,"REV_AT_EPOCH":2970,"BSTAR":9.4760359e-5,"MEAN_MOTION_DOT":-8.0e-7,"MEAN_MOTION_DDOT":0},{"OBJECT_NAME":"HULIANWANG DIGUI-41","OBJECT_ID":"2025-162B","EPOCH":"2026-03-06T14:43:05.017728","MEAN_MOTION":13.29332767,"ECCENTRICITY":0.00010697,"INCLINATION":49.9997,"RA_OF_ASC_NODE":273.8072,"ARG_OF_PERICENTER":78.3026,"MEAN_ANOMALY":281.7966,"EPHEMERIS_TYPE":0,"CLASSIFICATION_TYPE":"U","NORAD_CAT_ID":65044,"ELEMENT_SET_NO":999,"REV_AT_EPOCH":2971,"BSTAR":8.8096528e-5,"MEAN_MOTION_DOT":-8.3e-7,"MEAN_MOTION_DDOT":0},{"OBJECT_NAME":"HULIANWANG DIGUI-42","OBJECT_ID":"2025-162C","EPOCH":"2026-03-06T14:31:00.899328","MEAN_MOTION":13.29332161,"ECCENTRICITY":0.00010121,"INCLINATION":49.9962,"RA_OF_ASC_NODE":273.7015,"ARG_OF_PERICENTER":79.9722,"MEAN_ANOMALY":280.1264,"EPHEMERIS_TYPE":0,"CLASSIFICATION_TYPE":"U","NORAD_CAT_ID":65045,"ELEMENT_SET_NO":999,"REV_AT_EPOCH":2971,"BSTAR":8.7743914e-5,"MEAN_MOTION_DOT":-8.3e-7,"MEAN_MOTION_DDOT":0},{"OBJECT_NAME":"HULIANWANG DIGUI-43","OBJECT_ID":"2025-162D","EPOCH":"2026-03-06T14:18:57.275136","MEAN_MOTION":13.293332,"ECCENTRICITY":0.0001005,"INCLINATION":49.9979,"RA_OF_ASC_NODE":273.69,"ARG_OF_PERICENTER":78.7601,"MEAN_ANOMALY":281.3384,"EPHEMERIS_TYPE":0,"CLASSIFICATION_TYPE":"U","NORAD_CAT_ID":65046,"ELEMENT_SET_NO":999,"REV_AT_EPOCH":2971,"BSTAR":8.7897045e-5,"MEAN_MOTION_DOT":-8.3e-7,"MEAN_MOTION_DDOT":0},{"OBJECT_NAME":"HULIANWANG DIGUI-44","OBJECT_ID":"2025-162E","EPOCH":"2026-03-06T14:06:29.721600","MEAN_MOTION":13.29340739,"ECCENTRICITY":7.663e-5,"INCLINATION":50.0006,"RA_OF_ASC_NODE":273.6932,"ARG_OF_PERICENTER":358.0352,"MEAN_ANOMALY":2.0517,"EPHEMERIS_TYPE":0,"CLASSIFICATION_TYPE":"U","NORAD_CAT_ID":65047,"ELEMENT_SET_NO":999,"REV_AT_EPOCH":2972,"BSTAR":8.0551003e-5,"MEAN_MOTION_DOT":-8.7e-7,"MEAN_MOTION_DDOT":0},{"OBJECT_NAME":"HULIANWANG DIGUI-45","OBJECT_ID":"2025-162F","EPOCH":"2026-03-06T13:54:56.822112","MEAN_MOTION":13.29333041,"ECCENTRICITY":0.00010534,"INCLINATION":50.0036,"RA_OF_ASC_NODE":273.7053,"ARG_OF_PERICENTER":79.262,"MEAN_ANOMALY":280.8371,"EPHEMERIS_TYPE":0,"CLASSIFICATION_TYPE":"U","NORAD_CAT_ID":65048,"ELEMENT_SET_NO":999,"REV_AT_EPOCH":2971,"BSTAR":9.421817e-5,"MEAN_MOTION_DOT":-8.0e-7,"MEAN_MOTION_DDOT":0},{"OBJECT_NAME":"HULIANWANG DIGUI-46","OBJECT_ID":"2025-162G","EPOCH":"2026-03-06T13:42:54.926784","MEAN_MOTION":13.29332954,"ECCENTRICITY":0.00010551,"INCLINATION":50.0054,"RA_OF_ASC_NODE":273.6948,"ARG_OF_PERICENTER":81.0843,"MEAN_ANOMALY":279.0148,"EPHEMERIS_TYPE":0,"CLASSIFICATION_TYPE":"U","NORAD_CAT_ID":65049,"ELEMENT_SET_NO":999,"REV_AT_EPOCH":2971,"BSTAR":9.9911421e-5,"MEAN_MOTION_DOT":-7.8e-7,"MEAN_MOTION_DDOT":0},{"OBJECT_NAME":"HULIANWANG DIGUI-47","OBJECT_ID":"2025-162H","EPOCH":"2026-03-06T15:19:08.399424","MEAN_MOTION":13.29332796,"ECCENTRICITY":0.00010452,"INCLINATION":50.0018,"RA_OF_ASC_NODE":273.3192,"ARG_OF_PERICENTER":81.827,"MEAN_ANOMALY":278.2721,"EPHEMERIS_TYPE":0,"CLASSIFICATION_TYPE":"U","NORAD_CAT_ID":65050,"ELEMENT_SET_NO":999,"REV_AT_EPOCH":2972,"BSTAR":9.2543963e-5,"MEAN_MOTION_DOT":-8.1e-7,"MEAN_MOTION_DDOT":0},{"OBJECT_NAME":"HULIANWANG DIGUI-48","OBJECT_ID":"2025-162J","EPOCH":"2026-03-06T15:07:08.603616","MEAN_MOTION":13.29332326,"ECCENTRICITY":0.0001032,"INCLINATION":50.0028,"RA_OF_ASC_NODE":273.2931,"ARG_OF_PERICENTER":79.5408,"MEAN_ANOMALY":280.5581,"EPHEMERIS_TYPE":0,"CLASSIFICATION_TYPE":"U","NORAD_CAT_ID":65051,"ELEMENT_SET_NO":999,"REV_AT_EPOCH":2972,"BSTAR":0.00010685325,"MEAN_MOTION_DOT":-7.4e-7,"MEAN_MOTION_DDOT":0}]
